STARLINK-2022           
1 47643U 21012Z   24234.80848550  .00007764  00000+0  53925-3 0  9993
2 47643  53.0546  67.4643 0001276  89.2848 270.8288 15.06419635195127
